{"fetched_at":"2026-03-29T16:36:15Z","count":15609,"tles":[{"name":"STARLINK-31279","line1":"1 59086U 24041N   26087.69195021  .00001664  00000+0  69954-4 0  9998","line2":"2 59086  43.0013 203.7321 0001074 269.1658  90.9071 15.27588040117227","category":"Starlink"}]}